{"type":"FeatureCollection","source":"geoBoundaries DZA ADM1 (OpenStreetMap, Wambacher)","licence":"ODbL 1.0","features":[{"type":"Feature","properties":{"nom":"Wilaya d'Alger"},"geometry":{"type":"MultiPolygon","coordinates":[[[[2.8112,36.6433],[2.8144,36.6439],[2.8437,36.6382],[2.8508,36.6383],[2.869,36.6334],[2.8862,36.6321],[2.8791,36.6199],[2.8895,36.6195],[2.8914,36.6147],[2.8966,36.6148],[2.8966,36.6118],[2.9021,36.6096],[2.9076,36.6017],[2.9135,36.6037],[2.9166,36.6],[2.9227,36.5967],[2.9274,36.6028],[2.9433,36.5965],[2.9442,36.6048],[2.9427,36.6095],[2.9534,36.6101],[2.9561,36.602],[2.9546,36.5992],[2.9565,36.5924],[2.9598,36.5879],[2.9699,36.5966],[2.9704,36.5949],[2.9762,36.5952],[2.9796,36.5896],[2.985,36.5871],[2.988,36.588],[2.9914,36.5796],[2.9935,36.5855],[2.9979,36.5889],[3.0085,36.5892],[3.0082,36.5952],[3.0177,36.5973],[3.0303,36.6027],[3.0267,36.6077],[3.0333,36.6125],[3.0343,36.618],[3.0445,36.6177],[3.0446,36.6207],[3.0635,36.621],[3.0622,36.6117],[3.0583,36.6035],[3.0574,36.5794],[3.0899,36.5904],[3.0903,36.5953],[3.1,36.586],[3.1032,36.5844],[3.1071,36.5853],[3.1114,36.5816],[3.1173,36.5877],[3.1226,36.5845],[3.1201,36.5899],[3.1265,36.592],[3.1202,36.5993],[3.1323,36.6047],[3.1246,36.6202],[3.1344,36.6225],[3.1341,36.6242],[3.1384,36.6302],[3.1433,36.6319],[3.1427,36.6344],[3.15,36.6347],[3.1472,36.6529],[3.1769,36.6404],[3.1814,36.6514],[3.2044,36.6548],[3.2035,36.6566],[3.2071,36.664],[3.2044,36.6715],[3.2054,36.6726],[3.2168,36.6657],[3.2335,36.6739],[3.259,36.6913],[3.2599,36.6941],[3.2531,36.7],[3.2514,36.7072],[3.2558,36.7122],[3.2561,36.7156],[3.2709,36.6979],[3.3111,36.7109],[3.3148,36.7131],[3.3155,36.7182],[3.3358,36.72],[3.3489,36.7232],[3.3688,36.7234],[3.38,36.7256],[3.3826,36.7337],[3.3772,36.7362],[3.3801,36.7652],[3.3744,36.7655],[3.3482,36.7573],[3.3603,36.7821],[3.3147,36.7883],[3.3093,36.79],[3.3055,36.7939],[3.3012,36.7927],[3.2934,36.7938],[3.2826,36.8003],[3.2745,36.8007],[3.2638,36.8048],[3.2591,36.8096],[3.2589,36.8121],[3.2567,36.8114],[3.2553,36.8132],[3.2462,36.8124],[3.2435,36.8144],[3.2308,36.8155],[3.223,36.8119],[3.2289,36.8074],[3.2286,36.8047],[3.2331,36.8066],[3.235,36.8051],[3.2369,36.7978],[3.2347,36.796],[3.2361,36.7924],[3.234,36.792],[3.2361,36.7909],[3.2322,36.7854],[3.231,36.7758],[3.2234,36.7683],[3.2174,36.7663],[3.2169,36.763],[3.1917,36.75],[3.187,36.75],[3.1872,36.7485],[3.1805,36.7478],[3.1793,36.7459],[3.1774,36.7467],[3.1623,36.7425],[3.1367,36.7417],[3.1334,36.7425],[3.1323,36.7444],[3.1256,36.7426],[3.1185,36.7427],[3.117,36.7443],[3.1185,36.7454],[3.1158,36.7431],[3.1031,36.7458],[3.1029,36.7472],[3.0977,36.747],[3.0976,36.7507],[3.0949,36.7482],[3.0904,36.7482],[3.0757,36.7553],[3.0756,36.7622],[3.0755,36.7567],[3.0738,36.7573],[3.0738,36.7616],[3.0719,36.7616],[3.0718,36.7575],[3.0701,36.7581],[3.0701,36.7623],[3.062,36.7632],[3.0626,36.765],[3.0677,36.765],[3.06,36.7669],[3.0606,36.7685],[3.0639,36.7678],[3.0612,36.7696],[3.0654,36.7715],[3.0622,36.7741],[3.0623,36.776],[3.0655,36.7767],[3.0654,36.7778],[3.0622,36.7781],[3.0632,36.7803],[3.065,36.7795],[3.0639,36.7818],[3.0661,36.7864],[3.0681,36.7866],[3.0682,36.783],[3.0717,36.7796],[3.0786,36.7771],[3.0693,36.7823],[3.0697,36.7885],[3.0652,36.7883],[3.0603,36.7938],[3.0579,36.7928],[3.054,36.7941],[3.054,36.7958],[3.0493,36.7997],[3.0498,36.8022],[3.0411,36.8073],[3.0405,36.8096],[3.0329,36.8097],[3.0291,36.8131],[3.023,36.8124],[3.0219,36.8142],[3.0191,36.8143],[3.0177,36.8181],[3.0144,36.8174],[3.0146,36.8191],[3.0107,36.8206],[3.0089,36.8208],[3.0095,36.8185],[3.0037,36.8163],[2.9935,36.8162],[2.9883,36.8132],[2.9703,36.8158],[2.9629,36.8145],[2.9588,36.8121],[2.9522,36.8138],[2.9506,36.8106],[2.9453,36.8083],[2.9265,36.8049],[2.9109,36.8048],[2.9035,36.8067],[2.8972,36.8041],[2.8944,36.8048],[2.8943,36.8029],[2.8972,36.8021],[2.8972,36.7991],[2.8981,36.8028],[2.8982,36.7998],[2.9005,36.7989],[2.8984,36.794],[2.8994,36.7907],[2.8951,36.7868],[2.8929,36.781],[2.8791,36.7688],[2.8685,36.7628],[2.8579,36.76],[2.8557,36.761],[2.8557,36.7596],[2.8488,36.7611],[2.8489,36.7633],[2.8468,36.7626],[2.848,36.7637],[2.8461,36.7638],[2.8484,36.7649],[2.8498,36.7635],[2.8477,36.7654],[2.8379,36.7624],[2.8395,36.7629],[2.8384,36.7612],[2.8412,36.7607],[2.8457,36.7537],[2.8458,36.7503],[2.8436,36.7505],[2.8427,36.749],[2.8458,36.7502],[2.8455,36.7482],[2.8437,36.749],[2.8455,36.7479],[2.8455,36.7459],[2.8426,36.7383],[2.825,36.7165],[2.8033,36.6987],[2.8073,36.6833],[2.8027,36.6754],[2.8106,36.6732],[2.8148,36.6704],[2.8162,36.6669],[2.8207,36.6676],[2.8235,36.6658],[2.8223,36.6609],[2.8131,36.6624],[2.8167,36.6578],[2.8138,36.6572],[2.8069,36.6602],[2.8004,36.6536],[2.7999,36.6498],[2.8023,36.6483],[2.8044,36.6495],[2.8106,36.6484],[2.8112,36.6433]]]]}}]}