{"type":"FeatureCollection","source":"geoBoundaries DZA ADM0 (OpenStreetMap, Wambacher)","licence":"ODbL 1.0","features":[{"type":"Feature","properties":{"nom":"Algérie"},"geometry":{"type":"MultiPolygon","coordinates":[[[[-8.669,28.714],[-8.668,27.315],[-4.833,25.0],[1.167,21.116],[1.194,20.943],[1.164,20.739],[1.317,20.74],[1.384,20.657],[1.6,20.596],[1.668,20.53],[1.669,20.405],[1.799,20.297],[1.883,20.297],[1.922,20.224],[1.979,20.267],[2.121,20.238],[2.215,20.319],[2.312,20.271],[2.319,20.217],[2.402,20.129],[2.375,20.028],[2.47,20.099],[2.596,20.032],[2.665,20.051],[2.684,20.101],[2.735,19.994],[2.978,19.953],[3.149,19.857],[3.255,19.835],[3.232,19.584],[3.266,19.448],[3.2,19.417],[3.178,19.359],[3.201,19.277],[3.115,19.156],[3.358,18.968],[5.811,19.447],[7.46,20.842],[8.997,21.779],[11.997,23.517],[11.604,24.265],[11.423,24.201],[11.052,24.425],[10.899,24.555],[10.827,24.57],[10.767,24.51],[10.706,24.573],[10.615,24.574],[10.545,24.534],[10.357,24.537],[10.216,24.651],[10.038,24.966],[10.032,25.36],[9.399,26.196],[9.512,26.385],[9.863,26.52],[9.913,26.647],[9.925,26.862],[9.86,26.947],[9.784,27.354],[9.878,27.562],[9.816,27.572],[9.887,27.607],[9.924,27.68],[9.962,27.886],[9.833,28.286],[9.902,28.759],[9.78,29.425],[9.539,29.901],[9.408,30.066],[9.399,30.179],[9.558,30.23],[9.065,32.087],[8.357,32.503],[8.323,32.823],[8.116,33.05],[8.117,33.1],[7.832,33.188],[7.778,33.324],[7.749,33.327],[7.737,33.425],[7.596,33.648],[7.562,33.777],[7.525,33.798],[7.547,33.837],[7.522,33.905],[7.56,34.015],[7.532,34.07],[7.614,34.114],[7.655,34.197],[7.733,34.17],[7.816,34.214],[7.857,34.405],[8.222,34.578],[8.211,34.604],[8.281,34.655],[8.241,34.688],[8.324,34.733],[8.284,34.767],[8.245,34.921],[8.315,34.948],[8.357,35.099],[8.477,35.24],[8.409,35.245],[8.312,35.315],[8.315,35.414],[8.385,35.487],[8.356,35.67],[8.264,35.731],[8.253,35.886],[8.297,36.04],[8.346,36.097],[8.307,36.174],[8.355,36.232],[8.338,36.265],[8.391,36.305],[8.376,36.349],[8.41,36.412],[8.355,36.446],[8.209,36.448],[8.154,36.497],[8.449,36.618],[8.487,36.697],[8.43,36.76],[8.572,36.773],[8.669,36.817],[8.681,36.839],[8.625,36.854],[8.641,36.942],[8.429,36.895],[8.271,36.917],[8.228,36.952],[7.994,36.859],[7.848,36.842],[7.764,36.877],[7.793,36.969],[7.621,36.961],[7.512,37.042],[7.408,37.04],[7.388,37.084],[7.273,37.066],[7.212,37.09],[7.169,37.077],[7.256,37.023],[7.201,36.943],[6.931,36.88],[6.883,36.895],[6.85,36.957],[6.636,36.956],[6.566,36.987],[6.583,37.015],[6.541,37.032],[6.549,37.054],[6.413,37.086],[6.263,37.024],[6.239,36.983],[6.264,36.947],[6.22,36.912],[5.882,36.816],[5.899,36.834],[5.803,36.807],[5.694,36.82],[5.594,36.781],[5.501,36.678],[5.293,36.638],[5.093,36.701],[5.098,36.752],[5.079,36.746],[5.105,36.776],[4.759,36.896],[4.108,36.89],[3.895,36.924],[3.735,36.887],[3.499,36.77],[3.231,36.816],[3.224,36.769],[3.151,36.742],[3.078,36.753],[3.017,36.819],[2.952,36.814],[2.838,36.762],[2.784,36.687],[2.555,36.592],[2.433,36.594],[2.347,36.645],[2.022,36.568],[1.492,36.528],[1.358,36.553],[1.284,36.507],[1.083,36.494],[0.937,36.448],[0.87,36.372],[0.658,36.33],[0.342,36.193],[0.135,36.042],[0.025,35.86],[-0.096,35.792],[-0.276,35.82],[-0.31,35.85],[-0.293,35.875],[-0.381,35.909],[-0.489,35.876],[-0.503,35.791],[-0.624,35.713],[-0.791,35.773],[-0.884,35.707],[-0.939,35.728],[-1.155,35.574],[-1.197,35.575],[-1.295,35.351],[-1.555,35.27],[-1.773,35.119],[-1.806,35.133],[-2.009,35.071],[-2.155,35.103],[-2.212,35.085],[-2.219,35.048],[-2.046,34.927],[-1.973,34.936],[-1.973,34.879],[-1.894,34.842],[-1.889,34.806],[-1.739,34.743],[-1.854,34.616],[-1.687,34.49],[-1.782,34.394],[-1.705,34.307],[-1.707,34.23],[-1.648,34.105],[-1.699,33.87],[-1.671,33.773],[-1.732,33.701],[-1.653,33.681],[-1.595,33.605],[-1.588,33.529],[-1.664,33.378],[-1.67,33.284],[-1.573,33.146],[-1.471,33.069],[-1.486,32.975],[-1.544,32.958],[-1.399,32.763],[-0.999,32.518],[-1.122,32.415],[-1.206,32.395],[-1.248,32.325],[-1.241,32.206],[-1.299,32.166],[-1.192,32.169],[-1.152,32.111],[-1.23,32.076],[-1.58,32.092],[-2.015,32.182],[-2.15,32.144],[-2.278,32.169],[-2.536,32.146],[-2.6,32.113],[-2.873,32.111],[-2.931,32.028],[-2.821,31.794],[-3.665,31.634],[-3.647,31.394],[-3.723,31.342],[-3.749,31.361],[-3.786,31.293],[-3.759,31.263],[-3.791,31.236],[-3.759,31.18],[-3.775,31.101],[-3.731,31.117],[-3.734,31.146],[-3.705,31.137],[-3.702,31.176],[-3.672,31.151],[-3.68,31.087],[-3.644,31.082],[-3.666,31.09],[-3.637,31.1],[-3.639,31.17],[-3.637,31.111],[-3.542,31.039],[-3.541,30.955],[-3.658,30.851],[-3.63,30.745],[-3.654,30.675],[-3.817,30.59],[-3.887,30.611],[-4.147,30.585],[-4.296,30.536],[-4.607,30.283],[-4.937,30.14],[-5.271,29.905],[-5.323,29.777],[-5.558,29.479],[-5.686,29.541],[-5.749,29.518],[-5.723,29.586],[-5.8,29.615],[-6.029,29.564],[-6.449,29.566],[-6.541,29.515],[-6.695,29.515],[-6.777,29.462],[-7.15,29.523],[-7.393,29.376],[-7.613,29.371],[-7.639,29.297],[-7.786,29.256],[-7.958,29.124],[-8.321,28.918],[-8.426,28.818],[-8.669,28.714]]]]}}]}