{"type":"FeatureCollection","source":"geoBoundaries DZA ADM3 (OpenStreetMap)","licence":"CC BY-SA 2.0","features":[{"type":"Feature","properties":{"nom":"Djasr Kasentina","lon":3.0731,"lat":36.6918},"geometry":{"type":"MultiPolygon","coordinates":[[[[3.0425,36.6955],[3.0506,36.6912],[3.05,36.689],[3.0526,36.6889],[3.0589,36.685],[3.0627,36.6798],[3.0725,36.6759],[3.075,36.6722],[3.0773,36.6721],[3.0808,36.6743],[3.0812,36.6798],[3.0868,36.6782],[3.0861,36.6838],[3.0936,36.6871],[3.0951,36.6926],[3.105,36.6953],[3.1089,36.7038],[3.1149,36.7035],[3.1087,36.708],[3.0893,36.7134],[3.0697,36.7025],[3.0582,36.7049],[3.0462,36.7033],[3.048,36.6998],[3.0438,36.6977],[3.0425,36.6955]]]]}},{"type":"Feature","properties":{"nom":"Bologhine","lon":3.0381,"lat":36.8017},"geometry":{"type":"MultiPolygon","coordinates":[[[[3.0272,36.8124],[3.0239,36.8069],[3.0249,36.8005],[3.0306,36.7981],[3.0335,36.7988],[3.0371,36.7964],[3.041,36.7964],[3.0444,36.7933],[3.0441,36.7954],[3.0475,36.7968],[3.0512,36.7957],[3.0514,36.7976],[3.0492,36.7999],[3.0498,36.8022],[3.0411,36.8073],[3.0405,36.8096],[3.0329,36.8097],[3.0294,36.8129],[3.0272,36.8124]]]]}},{"type":"Feature","properties":{"nom":"Raïs Hamidou","lon":3.0156,"lat":36.8075},"geometry":{"type":"MultiPolygon","coordinates":[[[[3.0272,36.8124],[3.0223,36.8127],[3.0219,36.8142],[3.0191,36.8143],[3.0175,36.8183],[3.0149,36.8173],[3.0146,36.8191],[3.009,36.8209],[3.0096,36.8186],[3.0069,36.8174],[2.9956,36.8155],[2.9944,36.8074],[3.0013,36.8023],[3.0048,36.8019],[3.007,36.8041],[3.0117,36.805],[3.0172,36.8096],[3.0133,36.7968],[3.0164,36.7967],[3.0176,36.7948],[3.0223,36.7949],[3.0245,36.7931],[3.0288,36.7952],[3.0283,36.7995],[3.0249,36.8005],[3.0239,36.8069],[3.0272,36.8124]]]]}},{"type":"Feature","properties":{"nom":"Birkhadem","lon":3.0464,"lat":36.7129},"geometry":{"type":"MultiPolygon","coordinates":[[[[3.0733,36.7043],[3.0721,36.7057],[3.0682,36.705],[3.0699,36.7134],[3.0576,36.7182],[3.053,36.7251],[3.0466,36.7309],[3.0435,36.7304],[3.0432,36.732],[3.0393,36.7324],[3.0308,36.7293],[3.0306,36.7266],[3.0268,36.7235],[3.0263,36.7196],[3.0273,36.7179],[3.0237,36.7149],[3.0328,36.7072],[3.0329,36.7029],[3.0365,36.7027],[3.0381,36.6986],[3.0425,36.6955],[3.0438,36.6977],[3.048,36.6998],[3.0462,36.7033],[3.0582,36.7049],[3.0697,36.7025],[3.0733,36.7043]]]]}},{"type":"Feature","properties":{"nom":"Bir Mourad Raïs","lon":3.0436,"lat":36.7319},"geometry":{"type":"MultiPolygon","coordinates":[[[[3.053,36.7251],[3.0588,36.7278],[3.062,36.727],[3.0606,36.7303],[3.0567,36.7324],[3.0624,36.7333],[3.0646,36.7355],[3.0639,36.738],[3.0613,36.7396],[3.0492,36.7403],[3.0449,36.7377],[3.0397,36.7407],[3.0329,36.7385],[3.0324,36.7367],[3.028,36.7376],[3.0288,36.7315],[3.0242,36.7308],[3.0218,36.7274],[3.0263,36.7196],[3.0268,36.7235],[3.0306,36.7266],[3.0308,36.7293],[3.0393,36.7324],[3.0432,36.732],[3.0435,36.7304],[3.0466,36.7309],[3.053,36.7251]]]]}},{"type":"Feature","properties":{"nom":"Kouba","lon":3.0797,"lat":36.727},"geometry":{"type":"MultiPolygon","coordinates":[[[[3.0893,36.7134],[3.0932,36.7138],[3.0918,36.7167],[3.0931,36.7211],[3.1,36.7209],[3.1014,36.7237],[3.1016,36.7291],[3.0941,36.733],[3.0948,36.7347],[3.0925,36.7363],[3.0958,36.736],[3.0941,36.7381],[3.084,36.7436],[3.0774,36.7403],[3.0852,36.7385],[3.0816,36.7341],[3.0713,36.7375],[3.0639,36.738],[3.0646,36.7355],[3.0624,36.7333],[3.0567,36.7324],[3.0606,36.7303],[3.062,36.727],[3.0588,36.7278],[3.053,36.7251],[3.0576,36.7182],[3.0699,36.7134],[3.0682,36.705],[3.0721,36.7057],[3.0733,36.7043],[3.0893,36.7134]]]]}},{"type":"Feature","properties":{"nom":"El Madania","lon":3.0655,"lat":36.7428},"geometry":{"type":"MultiPolygon","coordinates":[[[[3.0639,36.738],[3.0713,36.7375],[3.0816,36.7341],[3.0852,36.7385],[3.0774,36.7403],[3.0801,36.742],[3.0574,36.7505],[3.0528,36.7488],[3.0555,36.7493],[3.0596,36.7476],[3.0576,36.7449],[3.0589,36.742],[3.0556,36.74],[3.0613,36.7396],[3.0639,36.738]]]]}},{"type":"Feature","properties":{"nom":"El Mouradia","lon":3.0486,"lat":36.7502},"geometry":{"type":"MultiPolygon","coordinates":[[[[3.0556,36.74],[3.0589,36.742],[3.0576,36.7449],[3.0596,36.7476],[3.0555,36.7493],[3.0528,36.7488],[3.055,36.7497],[3.0481,36.7538],[3.046,36.7571],[3.0437,36.7576],[3.0413,36.7563],[3.0381,36.7586],[3.0388,36.7567],[3.0377,36.7578],[3.0342,36.755],[3.0467,36.7477],[3.0492,36.7403],[3.0556,36.74]]]]}},{"type":"Feature","properties":{"nom":"Hydra","lon":3.0218,"lat":36.7421},"geometry":{"type":"MultiPolygon","coordinates":[[[[3.0492,36.7403],[3.0467,36.7477],[3.0316,36.7571],[3.0277,36.7569],[3.0243,36.7547],[3.0253,36.7535],[3.0203,36.7535],[3.0207,36.7549],[3.0146,36.7516],[3.0161,36.7462],[3.0115,36.7456],[3.0099,36.7478],[3.0143,36.751],[3.0091,36.7519],[3.0042,36.7511],[3.0047,36.7474],[3.0016,36.7474],[3.003,36.7428],[3.0106,36.7412],[3.0129,36.7395],[3.0138,36.7353],[3.0107,36.7342],[3.0115,36.7309],[3.0176,36.7314],[3.0189,36.7292],[3.0215,36.7288],[3.0175,36.7272],[3.0239,36.7243],[3.0218,36.7274],[3.0242,36.7308],[3.0288,36.7315],[3.028,36.7376],[3.0324,36.7367],[3.0329,36.7385],[3.0397,36.7407],[3.0449,36.7377],[3.0492,36.7403]]]]}},{"type":"Feature","properties":{"nom":"El Biar","lon":3.0361,"lat":36.766},"geometry":{"type":"MultiPolygon","coordinates":[[[[3.046,36.7571],[3.0423,36.7587],[3.0426,36.7616],[3.0389,36.7648],[3.0449,36.7687],[3.0417,36.7696],[3.0476,36.7709],[3.0482,36.7764],[3.0433,36.7733],[3.0426,36.7755],[3.0405,36.7757],[3.0424,36.7794],[3.0389,36.7774],[3.04,36.7786],[3.0385,36.7784],[3.0329,36.7724],[3.019,36.7726],[3.0102,36.7684],[3.0196,36.7687],[3.0156,36.7647],[3.0202,36.7635],[3.0252,36.7574],[3.0316,36.7571],[3.0342,36.755],[3.0377,36.7578],[3.0388,36.7567],[3.0381,36.7586],[3.0413,36.7563],[3.0437,36.7576],[3.046,36.7571]]]]}},{"type":"Feature","properties":{"nom":"Dély Brahim","lon":2.983,"lat":36.758},"geometry":{"type":"MultiPolygon","coordinates":[[[[2.9826,36.7691],[2.9832,36.7661],[2.9804,36.7661],[2.9803,36.7621],[2.9734,36.7588],[2.9745,36.7562],[2.9633,36.7534],[2.952,36.7548],[2.9504,36.7448],[2.9659,36.7416],[2.9846,36.7438],[2.9908,36.7481],[2.9965,36.7493],[2.997,36.7554],[3.001,36.762],[3.0084,36.7655],[3.0102,36.7684],[2.9987,36.7724],[2.9927,36.7701],[2.9826,36.7691]]]]}},{"type":"Feature","properties":{"nom":"El Achour","lon":2.989,"lat":36.7272},"geometry":{"type":"MultiPolygon","coordinates":[[[[3.0016,36.7474],[2.9965,36.7493],[2.9908,36.7481],[2.9846,36.7438],[2.9736,36.742],[2.9715,36.7344],[2.9657,36.7333],[2.9672,36.7281],[2.9626,36.7191],[2.9659,36.7066],[2.9726,36.708],[2.9735,36.7061],[2.9763,36.7061],[2.9793,36.7038],[2.9859,36.7035],[2.9828,36.7046],[2.9827,36.707],[2.9805,36.7078],[2.9909,36.7271],[2.9933,36.735],[3.0088,36.7265],[3.009,36.7301],[3.0115,36.7309],[3.0107,36.7342],[3.0138,36.7353],[3.0129,36.7395],[3.0106,36.7412],[3.003,36.7428],[3.0016,36.7474]]]]}},{"type":"Feature","properties":{"nom":"Ben Aknoun","lon":3.0136,"lat":36.7552},"geometry":{"type":"MultiPolygon","coordinates":[[[[3.0277,36.7569],[3.0252,36.7574],[3.0202,36.7635],[3.0156,36.7647],[3.0196,36.7687],[3.0102,36.7684],[3.0084,36.7655],[3.001,36.762],[2.997,36.7554],[2.9965,36.7493],[3.0047,36.7474],[3.0042,36.7511],[3.0091,36.7519],[3.0143,36.751],[3.0099,36.7478],[3.0115,36.7456],[3.0161,36.7462],[3.0146,36.7516],[3.0207,36.7549],[3.0203,36.7535],[3.0253,36.7535],[3.0243,36.7547],[3.0277,36.7569]]]]}},{"type":"Feature","properties":{"nom":"Draria","lon":3.0076,"lat":36.7139},"geometry":{"type":"MultiPolygon","coordinates":[[[[3.0263,36.7196],[3.0239,36.7243],[3.0175,36.7272],[3.0215,36.7288],[3.0189,36.7292],[3.0176,36.7314],[3.009,36.7301],[3.0088,36.7265],[2.9933,36.735],[2.9909,36.7271],[2.9805,36.7078],[2.9827,36.707],[2.9828,36.7046],[2.9928,36.7015],[2.995,36.6968],[2.9981,36.6968],[3.0028,36.6929],[3.0086,36.6922],[3.0045,36.697],[3.0127,36.6965],[3.0107,36.7047],[3.0187,36.7108],[3.02,36.7158],[3.0237,36.7149],[3.0273,36.7179],[3.0263,36.7196]]]]}},{"type":"Feature","properties":{"nom":"Bachdjarah","lon":3.1105,"lat":36.723},"geometry":{"type":"MultiPolygon","coordinates":[[[[3.0932,36.7138],[3.1026,36.7139],[3.1094,36.7157],[3.1154,36.7211],[3.1255,36.7231],[3.13,36.7227],[3.1314,36.7243],[3.1245,36.7323],[3.121,36.7305],[3.1154,36.7308],[3.1115,36.7269],[3.1079,36.7282],[3.1066,36.7256],[3.1014,36.7237],[3.1,36.7209],[3.0931,36.7211],[3.0918,36.7167],[3.0932,36.7138]]]]}},{"type":"Feature","properties":{"nom":"El Magharia","lon":3.108,"lat":36.7301},"geometry":{"type":"MultiPolygon","coordinates":[[[[3.1014,36.7237],[3.1066,36.7256],[3.1079,36.7282],[3.1115,36.7269],[3.1154,36.7308],[3.121,36.7305],[3.1245,36.7323],[3.1119,36.7375],[3.1098,36.7332],[3.1047,36.7355],[3.1027,36.7317],[3.101,36.7323],[3.0982,36.7301],[3.1016,36.7291],[3.1014,36.7237]]]]}},{"type":"Feature","properties":{"nom":"Bourouba","lon":3.1181,"lat":36.7163},"geometry":{"type":"MultiPolygon","coordinates":[[[[3.1149,36.7035],[3.1183,36.7049],[3.1238,36.7118],[3.1288,36.7128],[3.1322,36.7161],[3.1326,36.7227],[3.1283,36.7309],[3.1261,36.7311],[3.1314,36.7243],[3.13,36.7227],[3.1255,36.7231],[3.1154,36.7211],[3.1094,36.7157],[3.1026,36.7139],[3.0893,36.7134],[3.1087,36.708],[3.1149,36.7035]]]]}},{"type":"Feature","properties":{"nom":"El Harrach","lon":3.1378,"lat":36.7117},"geometry":{"type":"MultiPolygon","coordinates":[[[[3.1149,36.7035],[3.1251,36.6948],[3.1313,36.6931],[3.164,36.6955],[3.1553,36.706],[3.1504,36.7071],[3.1564,36.7108],[3.1476,36.7171],[3.1489,36.7175],[3.148,36.7224],[3.1578,36.7234],[3.1392,36.7293],[3.1283,36.7309],[3.1326,36.7227],[3.1322,36.7161],[3.1288,36.7128],[3.1238,36.7118],[3.1183,36.7049],[3.1149,36.7035]]]]}},{"type":"Feature","properties":{"nom":"Bouzareah","lon":3.0205,"lat":36.7917},"geometry":{"type":"MultiPolygon","coordinates":[[[[3.0283,36.7995],[3.0288,36.7952],[3.0245,36.7931],[3.0223,36.7949],[3.0176,36.7948],[3.0164,36.7967],[3.0133,36.7968],[3.0172,36.8096],[3.0117,36.805],[3.007,36.8041],[3.0048,36.8019],[3.0013,36.8023],[2.9904,36.7965],[2.9815,36.7896],[2.9816,36.7867],[2.9968,36.7827],[2.9987,36.7724],[3.0102,36.7684],[3.019,36.7726],[3.0329,36.7724],[3.0385,36.7784],[3.0353,36.7846],[3.031,36.7854],[3.032,36.787],[3.0298,36.7882],[3.0315,36.788],[3.031,36.7924],[3.034,36.7918],[3.0361,36.7938],[3.0417,36.7942],[3.041,36.7964],[3.0371,36.7964],[3.0335,36.7988],[3.0306,36.7981],[3.0283,36.7995]]]]}},{"type":"Feature","properties":{"nom":"Hammamet","lon":2.9737,"lat":36.8067},"geometry":{"type":"MultiPolygon","coordinates":[[[[2.9956,36.8155],[2.9935,36.8162],[2.9926,36.8148],[2.986,36.813],[2.9843,36.8147],[2.9814,36.8134],[2.9703,36.8158],[2.9629,36.8145],[2.9588,36.8121],[2.9522,36.8138],[2.9506,36.8106],[2.9448,36.8082],[2.9466,36.8037],[2.9525,36.8026],[2.9516,36.8013],[2.9605,36.7891],[2.971,36.794],[2.9692,36.7914],[2.9766,36.7942],[2.9863,36.7997],[2.9904,36.7965],[3.0013,36.8023],[2.9944,36.8074],[2.9956,36.8155]]]]}},{"type":"Feature","properties":{"nom":"Beni Messous","lon":2.9757,"lat":36.7835},"geometry":{"type":"MultiPolygon","coordinates":[[[[2.9987,36.7724],[2.9968,36.7827],[2.9816,36.7867],[2.9815,36.7896],[2.9904,36.7965],[2.9863,36.7997],[2.9766,36.7942],[2.9692,36.7914],[2.971,36.794],[2.9605,36.7891],[2.9616,36.7881],[2.9588,36.7847],[2.9583,36.7805],[2.9541,36.7794],[2.9571,36.7746],[2.9612,36.7723],[2.9826,36.7691],[2.9927,36.7701],[2.9987,36.7724]]]]}},{"type":"Feature","properties":{"nom":"Ain Benian","lon":2.9226,"lat":36.7931},"geometry":{"type":"MultiPolygon","coordinates":[[[[2.9448,36.8082],[2.9186,36.8044],[2.9035,36.8067],[2.8972,36.8041],[2.8946,36.805],[2.8943,36.8029],[2.8974,36.8017],[2.8972,36.7991],[2.8981,36.8028],[2.8982,36.7998],[2.9005,36.7986],[2.8984,36.794],[2.8994,36.7907],[2.8951,36.7868],[2.8932,36.7814],[2.9065,36.7827],[2.9091,36.7814],[2.9119,36.7828],[2.9181,36.782],[2.9265,36.7843],[2.9362,36.783],[2.9429,36.7791],[2.9583,36.7805],[2.9588,36.7847],[2.9616,36.7881],[2.9516,36.8013],[2.9525,36.8026],[2.9466,36.8037],[2.9448,36.8082]]]]}},{"type":"Feature","properties":{"nom":"Chéraga","lon":2.9285,"lat":36.7602},"geometry":{"type":"MultiPolygon","coordinates":[[[[2.9826,36.7691],[2.9612,36.7723],[2.9571,36.7746],[2.9541,36.7794],[2.9519,36.7805],[2.9429,36.7791],[2.9362,36.783],[2.9265,36.7843],[2.9181,36.782],[2.9119,36.7828],[2.9091,36.7814],[2.9065,36.7827],[2.8932,36.7814],[2.8744,36.7659],[2.8774,36.7629],[2.8815,36.7653],[2.8857,36.7652],[2.895,36.7569],[2.8935,36.754],[2.9015,36.751],[2.9014,36.7494],[2.9059,36.7453],[2.9048,36.7448],[2.9065,36.7427],[2.9024,36.7418],[2.907,36.7376],[2.9055,36.7346],[2.9119,36.7364],[2.9183,36.7406],[2.9252,36.7422],[2.9267,36.7465],[2.929,36.7477],[2.9359,36.7483],[2.9454,36.7445],[2.9504,36.7448],[2.952,36.7548],[2.9633,36.7534],[2.9745,36.7562],[2.9734,36.7588],[2.9803,36.7621],[2.9804,36.7661],[2.9832,36.7661],[2.9826,36.7691]]]]}},{"type":"Feature","properties":{"nom":"Saoula","lon":3.037,"lat":36.686},"geometry":{"type":"MultiPolygon","coordinates":[[[[3.0425,36.6955],[3.0381,36.6986],[3.0365,36.7027],[3.0329,36.7029],[3.0328,36.7072],[3.0237,36.7149],[3.02,36.7158],[3.0187,36.7108],[3.0107,36.7047],[3.0127,36.6965],[3.0045,36.697],[3.009,36.6919],[3.0095,36.6861],[3.0132,36.6793],[3.0109,36.6758],[3.0194,36.671],[3.0239,36.6642],[3.0407,36.6572],[3.0486,36.6639],[3.0582,36.6686],[3.0639,36.6653],[3.0684,36.6659],[3.0773,36.6721],[3.075,36.6722],[3.0725,36.6759],[3.0627,36.6798],[3.0589,36.685],[3.0526,36.6889],[3.05,36.689],[3.0506,36.6912],[3.0425,36.6955]]]]}},{"type":"Feature","properties":{"nom":"Ouled Fayet","lon":2.9395,"lat":36.7297},"geometry":{"type":"MultiPolygon","coordinates":[[[[2.9504,36.7448],[2.9454,36.7445],[2.9359,36.7483],[2.929,36.7477],[2.9267,36.7465],[2.9252,36.7422],[2.9183,36.7406],[2.9119,36.7364],[2.9153,36.7295],[2.9117,36.7276],[2.9169,36.723],[2.9162,36.7192],[2.9246,36.7092],[2.9267,36.7099],[2.9332,36.7064],[2.9476,36.702],[2.9566,36.7082],[2.9659,36.7066],[2.9626,36.7191],[2.9672,36.7281],[2.9657,36.7333],[2.9715,36.7344],[2.9736,36.742],[2.9659,36.7416],[2.9504,36.7448]]]]}},{"type":"Feature","properties":{"nom":"Baba Hassen","lon":2.9785,"lat":36.6954},"geometry":{"type":"MultiPolygon","coordinates":[[[[2.9659,36.7066],[2.9566,36.7082],[2.9476,36.702],[2.9464,36.6928],[2.9532,36.691],[2.9573,36.6852],[2.9602,36.6844],[2.9684,36.6863],[2.9748,36.6851],[2.9802,36.6856],[2.9814,36.6838],[2.9864,36.6839],[2.9974,36.6901],[3.0059,36.6904],[3.009,36.6919],[3.0028,36.6929],[2.9981,36.6968],[2.995,36.6968],[2.9928,36.7015],[2.9793,36.7038],[2.9763,36.7061],[2.9735,36.7061],[2.9726,36.708],[2.9659,36.7066]]]]}},{"type":"Feature","properties":{"nom":"Khraissia","lon":2.9945,"lat":36.6692},"geometry":{"type":"MultiPolygon","coordinates":[[[[3.009,36.6919],[3.0059,36.6904],[2.9974,36.6901],[2.9864,36.6839],[2.9814,36.6838],[2.9802,36.6856],[2.9748,36.6851],[2.9772,36.6745],[2.9672,36.6715],[2.9692,36.6649],[2.9677,36.6636],[2.9759,36.6618],[2.9803,36.6565],[2.982,36.6515],[2.9878,36.6547],[2.9896,36.6525],[2.9947,36.654],[2.9985,36.6487],[2.9998,36.6492],[3.0012,36.6471],[3.0034,36.6469],[3.0311,36.661],[3.0239,36.6642],[3.0194,36.671],[3.0109,36.6758],[3.0132,36.6793],[3.0095,36.6861],[3.009,36.6919]]]]}},{"type":"Feature","properties":{"nom":"Douera","lon":2.9338,"lat":36.6652},"geometry":{"type":"MultiPolygon","coordinates":[[[[2.8862,36.6321],[2.9157,36.6299],[2.9383,36.6304],[2.9428,36.6393],[2.9412,36.6412],[2.9466,36.6461],[2.945,36.6502],[2.9463,36.6532],[2.9569,36.6588],[2.9593,36.6576],[2.9602,36.65],[2.9584,36.6446],[2.961,36.6337],[2.9672,36.6364],[2.9884,36.6414],[2.982,36.6515],[2.9803,36.6565],[2.9759,36.6618],[2.9677,36.6636],[2.9692,36.6649],[2.9672,36.6715],[2.9772,36.6745],[2.9748,36.6851],[2.9684,36.6863],[2.9602,36.6844],[2.9573,36.6852],[2.9532,36.691],[2.9464,36.6928],[2.9476,36.702],[2.9332,36.7064],[2.9335,36.7045],[2.9294,36.7035],[2.9312,36.7022],[2.9312,36.6983],[2.9277,36.694],[2.9381,36.6887],[2.9309,36.6854],[2.9247,36.686],[2.9236,36.68],[2.9248,36.6776],[2.9222,36.6765],[2.9236,36.6744],[2.9203,36.6728],[2.9221,36.6682],[2.9217,36.6624],[2.9145,36.6661],[2.9103,36.6663],[2.9007,36.6575],[2.8898,36.6608],[2.89,36.6588],[2.8865,36.6588],[2.8881,36.6574],[2.8844,36.6537],[2.8794,36.6432],[2.8779,36.6356],[2.879,36.6326],[2.8862,36.6321]]]]}},{"type":"Feature","properties":{"nom":"Tessala El Merdja","lon":2.9281,"lat":36.6237},"geometry":{"type":"MultiPolygon","coordinates":[[[[2.889,36.6184],[2.8914,36.6147],[2.8966,36.6148],[2.8966,36.6118],[2.9021,36.6096],[2.9076,36.6017],[2.9135,36.6037],[2.9166,36.6],[2.9227,36.5967],[2.9274,36.6028],[2.9433,36.5965],[2.9442,36.6048],[2.9427,36.6095],[2.9534,36.6101],[2.9558,36.6172],[2.9515,36.6163],[2.9475,36.6172],[2.9513,36.6288],[2.9554,36.6323],[2.961,36.6337],[2.9584,36.6446],[2.9602,36.65],[2.9593,36.6576],[2.9569,36.6588],[2.9463,36.6532],[2.945,36.6502],[2.9466,36.6461],[2.9412,36.6412],[2.9428,36.6393],[2.9383,36.6304],[2.9157,36.6299],[2.8862,36.6321],[2.8791,36.6199],[2.8868,36.6202],[2.8895,36.6195],[2.889,36.6184]]]]}},{"type":"Feature","properties":{"nom":"Ouled Chebel","lon":3.0005,"lat":36.6064},"geometry":{"type":"MultiPolygon","coordinates":[[[[3.0635,36.621],[3.0646,36.6253],[3.0303,36.631],[3.0207,36.6298],[3.0181,36.637],[2.9737,36.6253],[2.9741,36.6241],[2.9701,36.6211],[2.9558,36.6172],[2.9534,36.6101],[2.9561,36.602],[2.9546,36.5992],[2.9565,36.5924],[2.9598,36.5879],[2.9699,36.5966],[2.9704,36.5949],[2.9762,36.5952],[2.9796,36.5896],[2.985,36.5871],[2.988,36.588],[2.9914,36.5796],[2.9935,36.5855],[2.9979,36.5889],[3.0085,36.5892],[3.0082,36.5952],[3.0177,36.5973],[3.0303,36.6027],[3.0267,36.6077],[3.0333,36.6125],[3.0343,36.618],[3.0445,36.6177],[3.0446,36.6207],[3.0635,36.621]]]]}},{"type":"Feature","properties":{"nom":"Birtouta","lon":3.0122,"lat":36.6427},"geometry":{"type":"MultiPolygon","coordinates":[[[[3.0311,36.661],[3.0034,36.6469],[3.0012,36.6471],[2.9998,36.6492],[2.9985,36.6487],[2.9947,36.654],[2.9896,36.6525],[2.9878,36.6547],[2.982,36.6515],[2.9884,36.6414],[2.9672,36.6364],[2.9554,36.6323],[2.9513,36.6288],[2.9475,36.6172],[2.9515,36.6163],[2.9701,36.6211],[2.9741,36.6241],[2.9737,36.6253],[3.0181,36.637],[3.0207,36.6298],[3.0303,36.631],[3.0646,36.6253],[3.0656,36.6301],[3.0706,36.6336],[3.0662,36.6501],[3.072,36.6566],[3.0683,36.6615],[3.0684,36.6659],[3.0639,36.6653],[3.0582,36.6686],[3.0486,36.6639],[3.0407,36.6572],[3.0311,36.661]]]]}},{"type":"Feature","properties":{"nom":"Baraki","lon":3.0955,"lat":36.663},"geometry":{"type":"MultiPolygon","coordinates":[[[[3.0773,36.6721],[3.0684,36.6659],[3.0683,36.6615],[3.072,36.6566],[3.0662,36.6501],[3.0682,36.6412],[3.073,36.639],[3.0759,36.6354],[3.0817,36.6356],[3.0867,36.6386],[3.0865,36.6422],[3.0915,36.6434],[3.0922,36.6465],[3.0947,36.6469],[3.0945,36.6505],[3.0971,36.6507],[3.0971,36.6492],[3.1007,36.6476],[3.1003,36.6424],[3.1044,36.6381],[3.1138,36.6451],[3.1313,36.6488],[3.1247,36.6722],[3.1266,36.6724],[3.1276,36.678],[3.1302,36.6783],[3.124,36.682],[3.1251,36.6948],[3.1149,36.7035],[3.1089,36.7038],[3.105,36.6953],[3.0951,36.6926],[3.0936,36.6871],[3.0861,36.6838],[3.0868,36.6782],[3.0812,36.6798],[3.0808,36.6743],[3.0773,36.6721]]]]}},{"type":"Feature","properties":{"nom":"Sidi Moussa","lon":3.1035,"lat":36.6214},"geometry":{"type":"MultiPolygon","coordinates":[[[[3.1114,36.5816],[3.1173,36.5877],[3.1226,36.5845],[3.1201,36.5899],[3.1265,36.592],[3.1202,36.5993],[3.1284,36.604],[3.1323,36.6047],[3.1246,36.6202],[3.1344,36.6225],[3.1341,36.6242],[3.1384,36.6302],[3.1433,36.6319],[3.1427,36.6344],[3.15,36.6347],[3.1472,36.6529],[3.1352,36.6422],[3.1313,36.6488],[3.1138,36.6451],[3.1044,36.6381],[3.1003,36.6424],[3.1007,36.6476],[3.0971,36.6492],[3.0971,36.6507],[3.0945,36.6505],[3.0947,36.6469],[3.0922,36.6465],[3.0915,36.6434],[3.0865,36.6422],[3.0867,36.6386],[3.0817,36.6356],[3.0759,36.6354],[3.073,36.639],[3.0682,36.6412],[3.0706,36.6336],[3.0656,36.6301],[3.0622,36.6117],[3.0583,36.6035],[3.0574,36.5794],[3.0899,36.5904],[3.0903,36.5953],[3.1,36.586],[3.1032,36.5844],[3.1071,36.5853],[3.1114,36.5816]]]]}},{"type":"Feature","properties":{"nom":"Staouéli","lon":2.867,"lat":36.7498},"geometry":{"type":"MultiPolygon","coordinates":[[[[2.8744,36.7659],[2.8672,36.7623],[2.8579,36.76],[2.8557,36.761],[2.8554,36.7596],[2.8531,36.7605],[2.8529,36.7594],[2.8517,36.761],[2.8488,36.7611],[2.8488,36.7634],[2.8468,36.7626],[2.8471,36.7647],[2.8498,36.7635],[2.8481,36.7654],[2.8444,36.7653],[2.8379,36.7624],[2.8395,36.7629],[2.8383,36.7612],[2.841,36.761],[2.8457,36.7537],[2.8458,36.7503],[2.8436,36.7505],[2.8427,36.749],[2.8458,36.7502],[2.8454,36.7482],[2.8436,36.7488],[2.8455,36.7459],[2.8403,36.7346],[2.8485,36.7323],[2.8544,36.7264],[2.8637,36.7254],[2.8669,36.7202],[2.8758,36.7158],[2.8848,36.7208],[2.8908,36.7276],[2.912,36.7362],[2.9055,36.7346],[2.907,36.7376],[2.9024,36.7418],[2.9065,36.7427],[2.9048,36.7448],[2.9059,36.7453],[2.9014,36.7494],[2.9015,36.751],[2.8935,36.754],[2.895,36.7569],[2.8857,36.7652],[2.8815,36.7653],[2.8774,36.7629],[2.8744,36.7659]]]]}},{"type":"Feature","properties":{"nom":"Souidania","lon":2.9062,"lat":36.7097},"geometry":{"type":"MultiPolygon","coordinates":[[[[2.912,36.7362],[2.8908,36.7276],[2.8848,36.7208],[2.8758,36.7158],[2.8737,36.7162],[2.8815,36.7047],[2.8876,36.7042],[2.8882,36.6996],[2.896,36.6854],[2.8993,36.6881],[2.9059,36.6895],[2.9076,36.6924],[2.9139,36.6944],[2.9181,36.7007],[2.9265,36.7003],[2.9294,36.7035],[2.9335,36.7045],[2.9332,36.7064],[2.9267,36.7099],[2.9246,36.7092],[2.9162,36.7192],[2.9169,36.723],[2.9117,36.7276],[2.9153,36.7295],[2.912,36.7362]]]]}},{"type":"Feature","properties":{"nom":"Rahmania","lon":2.9148,"lat":36.6811},"geometry":{"type":"MultiPolygon","coordinates":[[[[2.9294,36.7035],[2.9265,36.7003],[2.9181,36.7007],[2.9139,36.6944],[2.9076,36.6924],[2.9059,36.6895],[2.8993,36.6881],[2.896,36.6854],[2.8934,36.679],[2.8969,36.6742],[2.9028,36.6729],[2.8992,36.6655],[2.8977,36.6641],[2.8954,36.6648],[2.8958,36.6597],[2.9007,36.6575],[2.9103,36.6663],[2.9145,36.6661],[2.9217,36.6624],[2.9221,36.6682],[2.9203,36.6728],[2.9236,36.6744],[2.9222,36.6765],[2.9248,36.6776],[2.9236,36.68],[2.9247,36.686],[2.9309,36.6854],[2.9381,36.6887],[2.9277,36.694],[2.9312,36.6983],[2.9312,36.7022],[2.9294,36.7035]]]]}},{"type":"Feature","properties":{"nom":"Mahelma","lon":2.8553,"lat":36.6674},"geometry":{"type":"MultiPolygon","coordinates":[[[[2.879,36.6326],[2.8779,36.6356],[2.8794,36.6432],[2.8844,36.6537],[2.8881,36.6574],[2.8865,36.6588],[2.89,36.6588],[2.8898,36.6608],[2.8958,36.6597],[2.8954,36.6648],[2.8977,36.6641],[2.8992,36.6655],[2.9028,36.6729],[2.8969,36.6742],[2.8934,36.679],[2.896,36.6854],[2.8882,36.6996],[2.8876,36.7042],[2.8815,36.7047],[2.88,36.7078],[2.8778,36.7066],[2.8752,36.7005],[2.8663,36.7015],[2.8608,36.6987],[2.8586,36.6963],[2.8592,36.6936],[2.8562,36.6904],[2.8569,36.6888],[2.8508,36.6855],[2.8578,36.6809],[2.8611,36.6742],[2.8602,36.6734],[2.8489,36.6682],[2.8481,36.6716],[2.8429,36.6715],[2.8427,36.6668],[2.838,36.6688],[2.8377,36.6675],[2.836,36.669],[2.8335,36.6663],[2.8251,36.6625],[2.8243,36.6605],[2.8131,36.6624],[2.8167,36.6578],[2.8138,36.6572],[2.8069,36.6602],[2.8004,36.6536],[2.7999,36.6498],[2.8023,36.6483],[2.8044,36.6495],[2.8106,36.6484],[2.8112,36.6433],[2.8144,36.6439],[2.8437,36.6382],[2.8508,36.6383],[2.8655,36.634],[2.879,36.6326]]]]}},{"type":"Feature","properties":{"nom":"Zeralda","lon":2.8428,"lat":36.6866},"geometry":{"type":"MultiPolygon","coordinates":[[[[2.8216,36.6607],[2.8243,36.6605],[2.8251,36.6625],[2.8335,36.6663],[2.836,36.669],[2.8377,36.6675],[2.838,36.6688],[2.8427,36.6668],[2.8429,36.6715],[2.8481,36.6716],[2.8489,36.6682],[2.8611,36.6742],[2.8578,36.6809],[2.8508,36.6855],[2.8569,36.6888],[2.8562,36.6904],[2.8592,36.6936],[2.8586,36.6963],[2.8608,36.6987],[2.8663,36.7015],[2.8752,36.7005],[2.8778,36.7066],[2.88,36.7078],[2.8737,36.7162],[2.8669,36.7202],[2.8637,36.7254],[2.8544,36.7264],[2.8485,36.7323],[2.8403,36.7346],[2.824,36.7154],[2.8033,36.6987],[2.8073,36.6833],[2.8027,36.6754],[2.8106,36.6732],[2.8148,36.6704],[2.8162,36.6669],[2.8207,36.6676],[2.8228,36.6666],[2.8216,36.6607]]]]}},{"type":"Feature","properties":{"nom":"Les Eucalyptus","lon":3.165,"lat":36.6699},"geometry":{"type":"MultiPolygon","coordinates":[[[[3.1928,36.6533],[3.2044,36.6548],[3.2035,36.6566],[3.2071,36.664],[3.2044,36.6715],[3.2054,36.6726],[3.2048,36.6792],[3.192,36.6893],[3.1649,36.6895],[3.1635,36.691],[3.164,36.6955],[3.1313,36.6931],[3.1251,36.6948],[3.124,36.682],[3.1302,36.6783],[3.1276,36.678],[3.1266,36.6724],[3.1247,36.6722],[3.1313,36.6488],[3.1352,36.6422],[3.1472,36.6529],[3.1769,36.6404],[3.1814,36.6514],[3.1928,36.6533]]]]}},{"type":"Feature","properties":{"nom":"Oued Smar","lon":3.1694,"lat":36.7096},"geometry":{"type":"MultiPolygon","coordinates":[[[[3.164,36.6955],[3.1877,36.6952],[3.1931,36.6963],[3.2068,36.706],[3.2061,36.7132],[3.1761,36.7042],[3.1724,36.7044],[3.1669,36.7067],[3.1668,36.7101],[3.1723,36.7124],[3.1696,36.7135],[3.1711,36.7152],[3.1757,36.7153],[3.1689,36.7245],[3.148,36.7224],[3.1489,36.7175],[3.1476,36.7171],[3.1564,36.7108],[3.1504,36.7071],[3.1553,36.706],[3.164,36.6955]]]]}},{"type":"Feature","properties":{"nom":"Mohammadia","lon":3.157,"lat":36.7371},"geometry":{"type":"MultiPolygon","coordinates":[[[[3.1578,36.7234],[3.1787,36.7256],[3.1774,36.7325],[3.1791,36.7327],[3.1794,36.7358],[3.1776,36.7379],[3.1769,36.7457],[3.1578,36.7421],[3.1542,36.7423],[3.1527,36.7445],[3.1512,36.7416],[3.1461,36.7434],[3.1535,36.7454],[3.1479,36.7447],[3.1441,36.7417],[3.1319,36.7434],[3.1283,36.7309],[3.1392,36.7293],[3.1578,36.7234]]]]}},{"type":"Feature","properties":{"nom":"Bab Ezzouar","lon":3.1823,"lat":36.7215},"geometry":{"type":"MultiPolygon","coordinates":[[[[3.2061,36.7132],[3.2039,36.7184],[3.1971,36.7237],[3.1948,36.7416],[3.1856,36.7394],[3.1841,36.7373],[3.1794,36.7358],[3.1791,36.7327],[3.1774,36.7325],[3.1787,36.7256],[3.1689,36.7245],[3.1757,36.7153],[3.1711,36.7152],[3.1696,36.7135],[3.1723,36.7124],[3.1668,36.7101],[3.1669,36.7067],[3.1761,36.7042],[3.2061,36.7132]]]]}},{"type":"Feature","properties":{"nom":"Dar El Beïda","lon":3.2222,"lat":36.7078},"geometry":{"type":"MultiPolygon","coordinates":[[[[3.2553,36.7151],[3.2515,36.7162],[3.2435,36.7145],[3.2408,36.7164],[3.2406,36.7237],[3.2451,36.7275],[3.2443,36.7319],[3.2408,36.734],[3.2416,36.7361],[3.2332,36.7385],[3.2304,36.7297],[3.212,36.7273],[3.2037,36.731],[3.1964,36.731],[3.1971,36.7237],[3.2039,36.7184],[3.2061,36.7132],[3.2068,36.706],[3.1931,36.6963],[3.1877,36.6952],[3.164,36.6955],[3.1635,36.691],[3.1649,36.6895],[3.192,36.6893],[3.2048,36.6792],[3.2054,36.6726],[3.2168,36.6657],[3.2335,36.6739],[3.259,36.6913],[3.2599,36.6941],[3.2531,36.7],[3.2514,36.7072],[3.2561,36.7124],[3.2553,36.7151]]]]}},{"type":"Feature","properties":{"nom":"Rouiba","lon":3.2745,"lat":36.7396},"geometry":{"type":"MultiPolygon","coordinates":[[[[3.3155,36.7182],[3.3128,36.718],[3.3118,36.7252],[3.3195,36.7259],[3.3191,36.7386],[3.3246,36.7473],[3.3287,36.7472],[3.3295,36.7536],[3.2872,36.7555],[3.288,36.7701],[3.268,36.7772],[3.2677,36.7696],[3.2622,36.7704],[3.2627,36.768],[3.2653,36.7683],[3.2659,36.7662],[3.2628,36.7622],[3.2627,36.7588],[3.2469,36.7567],[3.2403,36.7603],[3.2386,36.756],[3.242,36.7526],[3.244,36.7397],[3.2408,36.734],[3.2443,36.7319],[3.2451,36.7275],[3.2406,36.7237],[3.2408,36.7164],[3.2435,36.7145],[3.2515,36.7162],[3.2553,36.7151],[3.2671,36.7038],[3.2709,36.6979],[3.3111,36.7109],[3.3148,36.7131],[3.3155,36.7182]]]]}},{"type":"Feature","properties":{"nom":"Bordj El Bahri","lon":3.2485,"lat":36.7871},"geometry":{"type":"MultiPolygon","coordinates":[[[[3.2707,36.777],[3.2702,36.7848],[3.2662,36.7859],[3.2683,36.7904],[3.2572,36.7936],[3.2582,36.8035],[3.2458,36.8044],[3.2448,36.7962],[3.2432,36.7963],[3.2434,36.798],[3.2368,36.7984],[3.2347,36.796],[3.2361,36.7924],[3.234,36.792],[3.2358,36.7922],[3.236,36.7907],[3.2322,36.7854],[3.2307,36.7796],[3.2316,36.7776],[3.2383,36.7749],[3.2462,36.7773],[3.2482,36.7723],[3.2497,36.772],[3.2519,36.7745],[3.2504,36.7776],[3.2707,36.777]]]]}},{"type":"Feature","properties":{"nom":"Bordj El Kiffan","lon":3.2242,"lat":36.7557},"geometry":{"type":"MultiPolygon","coordinates":[[[[3.1794,36.7358],[3.1841,36.7373],[3.1856,36.7394],[3.1948,36.7416],[3.1964,36.731],[3.2037,36.731],[3.212,36.7273],[3.2304,36.7297],[3.2332,36.7385],[3.2416,36.7361],[3.244,36.7397],[3.242,36.7526],[3.2386,36.756],[3.2403,36.7603],[3.2469,36.7567],[3.2627,36.7588],[3.2628,36.7622],[3.2659,36.7662],[3.2653,36.7683],[3.2627,36.768],[3.2622,36.7704],[3.2677,36.7696],[3.268,36.7772],[3.2504,36.7776],[3.2519,36.7745],[3.2497,36.772],[3.2482,36.7723],[3.2462,36.7773],[3.2383,36.7749],[3.2316,36.7776],[3.2307,36.7796],[3.2299,36.7746],[3.2236,36.7684],[3.2172,36.7662],[3.2178,36.7641],[3.2136,36.7609],[3.192,36.7503],[3.187,36.75],[3.187,36.7485],[3.1848,36.749],[3.1853,36.748],[3.1805,36.7478],[3.1769,36.7457],[3.1776,36.7379],[3.1794,36.7358]]]]}},{"type":"Feature","properties":{"nom":"El Marsa","lon":3.2471,"lat":36.8058},"geometry":{"type":"MultiPolygon","coordinates":[[[[3.2581,36.8017],[3.2611,36.8008],[3.2617,36.8032],[3.2661,36.8006],[3.2678,36.8038],[3.2616,36.8065],[3.2589,36.8121],[3.2567,36.8114],[3.2553,36.8132],[3.2462,36.8124],[3.2435,36.8144],[3.2333,36.8143],[3.2308,36.8155],[3.223,36.8119],[3.2285,36.8079],[3.2286,36.8047],[3.2304,36.8064],[3.2348,36.8053],[3.2368,36.7984],[3.2434,36.798],[3.2432,36.7963],[3.2448,36.7962],[3.2458,36.8044],[3.2582,36.8035],[3.2581,36.8017]]]]}},{"type":"Feature","properties":{"nom":"Ain Taya","lon":3.2843,"lat":36.7909},"geometry":{"type":"MultiPolygon","coordinates":[[[[3.288,36.7701],[3.2888,36.7828],[3.3228,36.7804],[3.3247,36.7864],[3.3093,36.79],[3.3071,36.7936],[3.3067,36.7924],[3.3043,36.7941],[3.3012,36.7927],[3.2934,36.794],[3.2826,36.8003],[3.2745,36.8007],[3.2678,36.8038],[3.2661,36.8006],[3.2617,36.8032],[3.2611,36.8008],[3.2581,36.8017],[3.2572,36.7936],[3.2683,36.7904],[3.2662,36.7859],[3.2702,36.7848],[3.2707,36.777],[3.288,36.7701]]]]}},{"type":"Feature","properties":{"nom":"Herraoua","lon":3.3234,"lat":36.7708},"geometry":{"type":"MultiPolygon","coordinates":[[[[3.3295,36.7536],[3.3321,36.7619],[3.3363,36.7635],[3.3368,36.7653],[3.3327,36.7736],[3.3336,36.7786],[3.3384,36.7826],[3.3476,36.7838],[3.3247,36.7864],[3.3228,36.7804],[3.2888,36.7828],[3.2872,36.7555],[3.3295,36.7536]]]]}},{"type":"Feature","properties":{"nom":"Reghaia","lon":3.3456,"lat":36.7484},"geometry":{"type":"MultiPolygon","coordinates":[[[[3.3781,36.7457],[3.3801,36.7652],[3.3744,36.7655],[3.3482,36.7573],[3.3602,36.782],[3.3476,36.7838],[3.3384,36.7826],[3.3336,36.7786],[3.3327,36.7736],[3.3368,36.7653],[3.3363,36.7635],[3.3321,36.7619],[3.3287,36.7472],[3.3246,36.7473],[3.3191,36.7386],[3.3195,36.7259],[3.3118,36.7252],[3.3128,36.718],[3.3358,36.72],[3.3489,36.7232],[3.3688,36.7234],[3.38,36.7256],[3.3826,36.7337],[3.3772,36.7362],[3.3781,36.7457]]]]}},{"type":"Feature","properties":{"nom":"Oued Koriche","lon":3.0416,"lat":36.7857},"geometry":{"type":"MultiPolygon","coordinates":[[[[3.041,36.7964],[3.0417,36.7942],[3.0361,36.7938],[3.034,36.7918],[3.031,36.7924],[3.0315,36.788],[3.0298,36.7882],[3.032,36.787],[3.031,36.7854],[3.0353,36.7846],[3.0385,36.7784],[3.04,36.7786],[3.0389,36.7774],[3.0424,36.7794],[3.0405,36.7757],[3.0426,36.7755],[3.0433,36.7733],[3.0502,36.7786],[3.0491,36.7799],[3.0505,36.7834],[3.0541,36.7864],[3.0517,36.7883],[3.0477,36.7858],[3.0456,36.7872],[3.0466,36.7901],[3.0451,36.7905],[3.0444,36.7942],[3.0444,36.7933],[3.041,36.7964]]]]}},{"type":"Feature","properties":{"nom":"Bab El Oued","lon":3.0501,"lat":36.792},"geometry":{"type":"MultiPolygon","coordinates":[[[[3.0444,36.7942],[3.0451,36.7905],[3.0466,36.7901],[3.0456,36.7872],[3.0477,36.7858],[3.0517,36.7883],[3.0541,36.7864],[3.0624,36.7903],[3.0611,36.7935],[3.055,36.7936],[3.0514,36.7976],[3.0512,36.7957],[3.0475,36.7968],[3.0441,36.7954],[3.0444,36.7942]]]]}},{"type":"Feature","properties":{"nom":"Casbah","lon":3.06,"lat":36.7829},"geometry":{"type":"MultiPolygon","coordinates":[[[[3.0502,36.7786],[3.0529,36.7822],[3.055,36.7814],[3.0539,36.782],[3.0555,36.7832],[3.0582,36.7807],[3.0568,36.7797],[3.0639,36.7818],[3.066,36.7864],[3.0681,36.7866],[3.0691,36.7818],[3.0786,36.7771],[3.0693,36.7823],[3.0693,36.7888],[3.0668,36.7876],[3.0624,36.7903],[3.0505,36.7834],[3.0491,36.7799],[3.0502,36.7786]]]]}},{"type":"Feature","properties":{"nom":"Alger-Centre","lon":3.0595,"lat":36.7681},"geometry":{"type":"MultiPolygon","coordinates":[[[[3.046,36.7571],[3.0448,36.7593],[3.048,36.7616],[3.0467,36.7635],[3.0572,36.7696],[3.0583,36.7637],[3.0661,36.7567],[3.0757,36.7522],[3.0769,36.754],[3.0756,36.7622],[3.0755,36.7567],[3.0737,36.7573],[3.0738,36.7616],[3.0718,36.7616],[3.0718,36.7575],[3.0701,36.7581],[3.0701,36.7623],[3.062,36.7632],[3.0626,36.7649],[3.0665,36.7641],[3.0677,36.765],[3.0601,36.7669],[3.0606,36.7685],[3.0638,36.7678],[3.0612,36.7696],[3.0654,36.7715],[3.0622,36.7741],[3.0622,36.776],[3.0655,36.7767],[3.0654,36.7779],[3.0621,36.7781],[3.0631,36.7803],[3.065,36.7795],[3.0639,36.7818],[3.0568,36.7797],[3.0582,36.7807],[3.0555,36.7832],[3.0539,36.782],[3.055,36.7814],[3.0529,36.7822],[3.0482,36.7764],[3.0476,36.7709],[3.0417,36.7696],[3.0449,36.7687],[3.0389,36.7648],[3.0426,36.7616],[3.0423,36.7587],[3.046,36.7571]]],[[[3.0662,36.7711],[3.0686,36.7655],[3.076,36.7665],[3.0824,36.7626],[3.0764,36.7667],[3.0694,36.7661],[3.0669,36.771],[3.0705,36.7783],[3.0662,36.7711]]]]}},{"type":"Feature","properties":{"nom":"Sidi M'Hamed","lon":3.0554,"lat":36.756},"geometry":{"type":"MultiPolygon","coordinates":[[[[3.0623,36.7487],[3.0571,36.7512],[3.0607,36.7513],[3.0607,36.7545],[3.0661,36.7567],[3.0583,36.7637],[3.0572,36.7696],[3.0467,36.7635],[3.048,36.7616],[3.0448,36.7593],[3.0481,36.7538],[3.055,36.7497],[3.0574,36.7505],[3.0623,36.7487]]]]}},{"type":"Feature","properties":{"nom":"Belouizdad","lon":3.0759,"lat":36.7492},"geometry":{"type":"MultiPolygon","coordinates":[[[[3.084,36.7436],[3.0887,36.7492],[3.0872,36.7502],[3.0886,36.7509],[3.0859,36.7498],[3.0769,36.754],[3.0757,36.7522],[3.0661,36.7567],[3.0607,36.7545],[3.0607,36.7513],[3.0571,36.7512],[3.0801,36.742],[3.0798,36.7409],[3.084,36.7436]]]]}},{"type":"Feature","properties":{"nom":"Hussein Dey","lon":3.1064,"lat":36.7408},"geometry":{"type":"MultiPolygon","coordinates":[[[[3.0982,36.7301],[3.101,36.7323],[3.1027,36.7317],[3.1047,36.7355],[3.1098,36.7332],[3.1119,36.7375],[3.1283,36.7309],[3.1323,36.7444],[3.127,36.7431],[3.1194,36.7439],[3.1187,36.7428],[3.1173,36.7441],[3.1184,36.7455],[3.1161,36.7436],[3.1082,36.7448],[3.103,36.7472],[3.0984,36.7479],[3.0977,36.7468],[3.0977,36.7509],[3.096,36.7519],[3.0937,36.7514],[3.0966,36.7506],[3.0947,36.7481],[3.0887,36.7492],[3.084,36.7436],[3.0941,36.7381],[3.0958,36.736],[3.0925,36.7363],[3.0948,36.7347],[3.0941,36.733],[3.0982,36.7301]]]]}}]}